NORAD_CAT_ID,OBJECT_NAME,OBJECT_TYPE,EPOCH,MEAN_MOTION,ECCENTRICITY,INCLINATION,RA_OF_ASC_NODE,ARG_OF_PERICENTER,MEAN_ANOMALY,BSTAR,MEAN_MOTION_DOT,MEAN_MOTION_DDOT,TLE_LINE0,TLE_LINE1,TLE_LINE2,SEMIMAJOR_AXIS,PERIOD,APOGEE,PERIGEE,DECAYED
55636.0,STARLINK-5218,PAYLOAD,2024-05-12 14:01:03,14.9827634,0.0003301,69.9993,83.8814,265.9199,94.1582,-0.00066322,-7.987e-05,0.0,0 STARLINK-5218,1 55636U 23021J   24133.58407058 -.00007987  00000-0 -66322-3 0  9998,2 55636  69.9993  83.8814 0003301 265.9199  94.1582 14.98276340 68526,6950.359,96.11,574.518,569.93,0.0
55636.0,STARLINK-5218,PAYLOAD,2024-05-12 22:01:42,14.98308372,0.000263,70.0008,83.0406,265.876,94.2098,-0.00023793,-2.929e-05,0.0,0 STARLINK-5218,1 55636U 23021J   24133.91784961 -.00002929  00000-0 -23793-3 0  9992,2 55636  70.0008  83.0406 0002630 265.8760  94.2098 14.98308372 68278,6950.26,96.108,573.953,570.297,0.0
55636.0,STARLINK-5218,PAYLOAD,2024-05-13 04:26:12,14.98335388,0.0002674,69.9997,82.3669,257.1586,102.9274,-6.8799e-05,-9.14e-06,0.0,0 STARLINK-5218,1 55636U 23021J   24134.18486998 -.00000914  00000-0 -68799-4 0  9999,2 55636  69.9997  82.3669 0002674 257.1586 102.9274 14.98335388 68318,6950.176,96.107,573.9,570.183,0.0
55636.0,STARLINK-5218,PAYLOAD,2024-05-13 14:03:00,14.98353936,0.0002712,69.9998,81.3564,278.7279,81.3572,-0.0001952,-2.423e-05,0.0,0 STARLINK-5218,1 55636U 23021J   24134.58542123 -.00002423  00000-0 -19520-3 0  9990,2 55636  69.9998  81.3564 0002712 278.7279  81.3572 14.98353936 68672,6950.119,96.105,573.869,570.099,0.0
55636.0,STARLINK-5218,PAYLOAD,2024-05-13 20:27:32,14.9834122,0.0003074,69.9997,80.6844,270.0287,90.052,0.00011081,1.23e-05,0.0,0 STARLINK-5218,1 55636U 23021J   24134.85245922  .00001230  00000-0  11081-3 0  9994,2 55636  69.9997  80.6844 0003074 270.0287  90.0520 14.98341220 68415,6950.158,96.106,574.16,569.887,0.0
55636.0,STARLINK-5218,PAYLOAD,2024-05-14 06:04:20,14.98349154,0.0002982,69.9999,79.6736,266.9957,93.0861,0.0001545,1.752e-05,0.0,0 STARLINK-5218,1 55636U 23021J   24135.25301209  .00001752  00000-0  15450-3 0  9993,2 55636  69.9999  79.6736 0002982 266.9957  93.0861 14.98349154 68774,6950.134,96.106,574.071,569.926,0.0
55636.0,STARLINK-5218,PAYLOAD,2024-05-14 14:05:02,14.98309763,0.0003132,69.9999,78.8315,265.4586,94.6215,0.00085156,0.00010077,0.0,0 STARLINK-5218,1 55636U 23021J   24135.58682919  .00010077  00000-0  85156-3 0  9999,2 55636  69.9999  78.8315 0003132 265.4586  94.6215 14.98309763 68523,6950.255,96.108,574.297,569.944,0.0
55636.0,STARLINK-5218,PAYLOAD,2024-05-14 22:05:43,14.98290784,0.0003061,70.0,77.9906,260.1655,99.9158,0.0012252,0.00014541,0.0,0 STARLINK-5218,1 55636U 23021J   24135.92063738  .00014541  00000-0  12252-2 0  9995,2 55636  70.0000  77.9906 0003061 260.1655  99.9158 14.98290784 68879,6950.314,96.11,574.307,570.052,0.0
55636.0,STARLINK-5218,PAYLOAD,2024-05-15 04:30:13,14.98353454,0.0003087,70.0,77.3175,266.4811,93.5995,0.00022069,2.543e-05,0.0,0 STARLINK-5218,1 55636U 23021J   24136.18765597  .00002543  00000-0  22069-3 0  9993,2 55636  70.0000  77.3175 0003087 266.4811  93.5995 14.98353454 68617,6950.12,96.105,574.131,569.84,0.0
55636.0,STARLINK-5218,PAYLOAD,2024-05-15 06:06:21,14.98355053,0.000308,70.0001,77.1492,266.3884,93.6923,0.0002379,2.749e-05,0.0,0 STARLINK-5218,1 55636U 23021J   24136.25441387  .00002749  00000-0  23790-3 0  9999,2 55636  70.0001  77.1492 0003080 266.3884  93.6923 14.98355053 68923,6950.115,96.105,574.121,569.84,0.0
55636.0,STARLINK-5218,PAYLOAD,2024-05-15 20:31:34,14.9834693,0.0002771,70.0037,75.6347,266.5884,93.4958,1.286e-05,6.1e-07,0.0,0 STARLINK-5218,1 55636U 23021J   24136.85525742  .00000061  00000-0  12860-4 0  9995,2 55636  70.0037  75.6347 0002771 266.5884  93.4958 14.98346930 68719,6950.141,96.106,573.931,570.08,0.0
55636.0,STARLINK-5218,PAYLOAD,2024-05-15 22:07:42,14.98345131,0.0002719,70.0028,75.4676,266.0345,94.0504,-2.4721e-05,-3.88e-06,0.0,0 STARLINK-5218,1 55636U 23021J   24136.92201862 -.00000388  00000-0 -24721-4 0  9990,2 55636  70.0028  75.4676 0002719 266.0345  94.0504 14.98345131 69022,6950.146,96.106,573.901,570.121,0.0
55636.0,STARLINK-5218,PAYLOAD,2024-05-16 12:32:54,14.98345583,0.0002668,70.002,73.9504,267.2093,92.8761,-3.2618e-05,-4.82e-06,0.0,0 STARLINK-5218,1 55636U 23021J   24137.52285091 -.00000482  00000-0 -32618-4 0  9992,2 55636  70.0020  73.9504 0002668 267.2093  92.8761 14.98345583 69115,6950.145,96.106,573.864,570.155,0.0
55636.0,STARLINK-5218,PAYLOAD,2024-05-16 18:57:26,14.98343435,0.0002544,70.0033,73.2785,268.951,91.1358,-5.4562e-05,-7.44e-06,0.0,0 STARLINK-5218,1 55636U 23021J   24137.78989099 -.00000744  00000-0 -54562-4 0  9992,2 55636  70.0033  73.2785 0002544 268.9510  91.1358 14.98343435 69150,6950.151,96.106,573.784,570.248,0.0
55636.0,STARLINK-5218,PAYLOAD,2024-05-17 04:34:14,14.98337852,0.0002255,70.0025,72.2667,271.6713,88.4188,4.8832e-05,4.9e-06,0.0,0 STARLINK-5218,1 55636U 23021J   24138.19044952  .00000490  00000-0  48832-4 0  9997,2 55636  70.0025  72.2667 0002255 271.6713  88.4188 14.98337852 68913,6950.169,96.106,573.601,570.466,0.0
55636.0,STARLINK-5218,PAYLOAD,2024-05-17 12:34:54,14.98342135,0.0003299,70.0009,71.4245,272.8126,87.2655,-0.00011759,-1.496e-05,0.0,0 STARLINK-5218,1 55636U 23021J   24138.52424434 -.00001496  00000-0 -11759-3 0  9997,2 55636  70.0009  71.4245 0003299 272.8126  87.2655 14.98342135 69263,6950.155,96.106,574.313,569.728,0.0
55636.0,STARLINK-5218,PAYLOAD,2024-05-17 22:11:44,14.98320893,0.0002168,70.0037,70.4159,279.8338,80.2576,6.033e-05,6.27e-06,0.0,0 STARLINK-5218,1 55636U 23021J   24138.92481918  .00000627  00000-0  60330-4 0  9994,2 55636  70.0037  70.4159 0002168 279.8338  80.2576 14.98320893 69322,6950.221,96.108,573.593,570.579,0.0
55636.0,STARLINK-5218,PAYLOAD,2024-05-18 04:36:15,14.98336007,0.000279,70.0007,69.7433,269.0858,90.9981,5.9927e-06,-2.1e-07,0.0,0 STARLINK-5218,1 55636U 23021J   24139.19184973 -.00000021  00000-0  59927-5 0  9995,2 55636  70.0007  69.7433 0002790 269.0858  90.9981 14.98336007 69067,6950.174,96.107,573.978,570.1,0.0
55636.0,STARLINK-5218,PAYLOAD,2024-05-18 12:36:55,14.98339344,0.000295,70.0004,68.8996,275.3474,84.7349,-7.4253e-05,-9.79e-06,0.0,0 STARLINK-5218,1 55636U 23021J   24139.52564793 -.00000979  00000-0 -74253-4 0  9995,2 55636  70.0004  68.8996 0002950 275.3474  84.7349 14.98339344 69415,6950.164,96.106,574.079,569.979,0.0
55636.0,STARLINK-5218,PAYLOAD,2024-05-18 22:13:44,14.98332187,0.000275,70.0014,67.8915,269.6101,90.4743,6.1974e-05,6.47e-06,0.0,0 STARLINK-5218,1 55636U 23021J   24139.92620920  .00000647  00000-0  61974-4 0  9990,2 55636  70.0014  67.8915 0002750 269.6101  90.4743 14.98332187 69473,6950.186,96.107,573.962,570.14,0.0
55636.0,STARLINK-5218,PAYLOAD,2024-05-19 04:38:15,14.98344135,0.000274,70.001,67.2194,263.1202,96.9645,0.00018002,2.056e-05,0.0,0 STARLINK-5218,1 55636U 23021J   24140.19323855  .00002056  00000-0  18002-3 0  9997,2 55636  70.0010  67.2194 0002740 263.1202  96.9645 14.98344135 69212,6950.149,96.106,573.919,570.11,0.0
55636.0,STARLINK-5218,PAYLOAD,2024-05-19 20:39:38,14.98318307,0.000268,70.0019,65.5368,270.642,89.4432,9.1895e-05,1.003e-05,0.0,0 STARLINK-5218,1 55636U 23021J   24140.86086024  .00001003  00000-0  91895-4 0  9998,2 55636  70.0019  65.5368 0002680 270.6420  89.4432 14.98318307 69317,6950.229,96.108,573.957,570.231,0.0
55636.0,STARLINK-5218,PAYLOAD,2024-05-20 04:40:18,14.9832445,0.0003082,70.0007,64.6939,273.6532,86.4274,-1.9382e-05,-3.24e-06,0.0,0 STARLINK-5218,1 55636U 23021J   24141.19466041 -.00000324  00000-0 -19382-4 0  9994,2 55636  70.0007  64.6939 0003082 273.6532  86.4274 14.98324450 69667,6950.21,96.107,574.217,569.933,0.0
55636.0,STARLINK-5218,PAYLOAD,2024-05-20 20:41:39,14.98329683,0.0002879,70.0015,63.0122,271.6237,88.4592,6.5549e-05,6.89e-06,0.0,0 STARLINK-5218,1 55636U 23021J   24141.86225808  .00000689  00000-0  65549-4 0  9990,2 55636  70.0015  63.0122 0002879 271.6237  88.4592 14.98329683 69462,6950.194,96.107,574.06,570.058,0.0
55636.0,STARLINK-5218,PAYLOAD,2024-05-21 04:42:19,14.98337037,0.0002947,70.0025,62.1697,272.5248,87.5573,0.00016645,1.894e-05,0.0,0 STARLINK-5218,1 55636U 23021J   24142.19605340  .00001894  00000-0  16645-3 0  9991,2 55636  70.0025  62.1697 0002947 272.5248  87.5573 14.98337037 69515,6950.171,96.107,574.084,569.988,0.0
55636.0,STARLINK-5218,PAYLOAD,2024-05-21 20:43:40,14.98330556,0.0002727,70.0033,60.4876,269.3984,90.6863,0.00032983,3.845e-05,0.0,0 STARLINK-5218,1 55636U 23021J   24142.86365816  .00003845  00000-0  32983-3 0  9997,2 55636  70.0033  60.4876 0002727 269.3984  90.6863 14.98330556 69618,6950.191,96.107,573.951,570.161,0.0
55636.0,STARLINK-5218,PAYLOAD,2024-05-21 22:19:48,14.98331775,0.0002722,70.0034,60.3193,269.2776,90.8072,0.00034914,4.076e-05,0.0,0 STARLINK-5218,1 55636U 23021J   24142.93041785  .00004076  00000-0  34914-3 0  9994,2 55636  70.0034  60.3193 0002722 269.2776  90.8072 14.98331775 69925,6950.187,96.107,573.944,570.161,0.0
55636.0,STARLINK-5218,PAYLOAD,2024-05-22 04:44:20,14.98340469,0.0002547,70.0039,59.6449,269.4936,90.5931,0.00044846,5.263e-05,0.0,0 STARLINK-5218,1 55636U 23021J   24143.19745421  .00005263  00000-0  44846-3 0  9995,2 55636  70.0039  59.6449 0002547 269.4936  90.5931 14.98340469 69965,6950.161,96.106,573.796,570.255,0.0
55636.0,STARLINK-5218,PAYLOAD,2024-05-22 20:45:40,14.98334532,0.0002313,70.0043,57.9642,240.4199,119.673,0.00012892,1.446e-05,0.0,0 STARLINK-5218,1 55636U 23021J   24143.86505433  .00001446  00000-0  12892-3 0  9991,2 55636  70.0043  57.9642 0002313 240.4199 119.6730 14.98334532 69769,6950.179,96.107,573.651,570.436,0.0
55636.0,STARLINK-5218,PAYLOAD,2024-05-23 04:46:20,14.98336946,0.0002733,70.0028,57.121,259.9393,100.1457,0.00010437,1.153e-05,0.0,0 STARLINK-5218,1 55636U 23021J   24144.19885224  .00001153  00000-0  10437-3 0  9995,2 55636  70.0028  57.1210 0002733 259.9393 100.1457 14.98336946 70115,6950.171,96.107,573.936,570.137,0.0
